[{"OBJECT_NAME":"COSMOS 1408 DEB","OBJECT_ID":"1982-092RU","EPOCH":"2026-03-28T14:02:19.337856","MEAN_MOTION":15.46968851,"ECCENTRICITY":0.00152063,"INCLINATION":82.5627,"RA_OF_ASC_NODE":309.9203,"ARG_OF_PERICENTER":182.5798,"MEAN_ANOMALY":177.5376,"EPHEMERIS_TYPE":0,"CLASSIFICATION_TYPE":"U","NORAD_CAT_ID":50032,"ELEMENT_SET_NO":999,"REV_AT_EPOCH":24239,"BSTAR":0.00010566416,"MEAN_MOTION_DOT":5.391e-5,"MEAN_MOTION_DDOT":0},{"OBJECT_NAME":"COSMOS 1408 DEB","OBJECT_ID":"1982-092SW","EPOCH":"2026-03-28T02:14:59.692416","MEAN_MOTION":15.73038361,"ECCENTRICITY":0.00141394,"INCLINATION":82.6107,"RA_OF_ASC_NODE":318.377,"ARG_OF_PERICENTER":65.7174,"MEAN_ANOMALY":294.5565,"EPHEMERIS_TYPE":0,"CLASSIFICATION_TYPE":"U","NORAD_CAT_ID":50058,"ELEMENT_SET_NO":999,"REV_AT_EPOCH":24455,"BSTAR":0.00035465234,"MEAN_MOTION_DOT":0.00048835,"MEAN_MOTION_DDOT":0},{"OBJECT_NAME":"COSMOS 1408 DEB","OBJECT_ID":"1982-092ADS","EPOCH":"2026-03-28T12:21:09.449280","MEAN_MOTION":15.39984087,"ECCENTRICITY":0.0111247,"INCLINATION":82.1916,"RA_OF_ASC_NODE":104.6992,"ARG_OF_PERICENTER":187.798,"MEAN_ANOMALY":172.1543,"EPHEMERIS_TYPE":0,"CLASSIFICATION_TYPE":"U","NORAD_CAT_ID":50404,"ELEMENT_SET_NO":999,"REV_AT_EPOCH":22806,"BSTAR":0.0035519,"MEAN_MOTION_DOT":0.00179537,"MEAN_MOTION_DDOT":0},{"OBJECT_NAME":"COSMOS 1408 DEB","OBJECT_ID":"1982-092ALR","EPOCH":"2026-03-28T09:19:00.743520","MEAN_MOTION":15.63730535,"ECCENTRICITY":0.0025183,"INCLINATION":82.5696,"RA_OF_ASC_NODE":323.6284,"ARG_OF_PERICENTER":117.2654,"MEAN_ANOMALY":243.1175,"EPHEMERIS_TYPE":0,"CLASSIFICATION_TYPE":"U","NORAD_CAT_ID":50621,"ELEMENT_SET_NO":999,"REV_AT_EPOCH":23897,"BSTAR":0.0003967925,"MEAN_MOTION_DOT":0.00037748,"MEAN_MOTION_DDOT":0}]
