COSMOS 1408 DEB         
1 50032U 82092RU  26087.58494604  .00005391  00000+0  10566-3 0  9992
2 50032  82.5627 309.9203 0015206 182.5798 177.5376 15.46968851242391
COSMOS 1408 DEB         
1 50058U 82092SW  26087.09374644  .00048835  00000+0  35465-3 0  9992
2 50058  82.6107 318.3770 0014139  65.7174 294.5565 15.73038361244554
COSMOS 1408 DEB         
1 50404U 82092ADS 26087.51469270  .00179537  00000+0  35519-2 0  9997
2 50404  82.1916 104.6992 0111247 187.7980 172.1543 15.39984087228064
COSMOS 1408 DEB         
1 50621U 82092ALR 26087.38820305  .00037748  00000+0  39679-3 0  9992
2 50621  82.5696 323.6284 0025183 117.2654 243.1175 15.63730535238975
